[333plinear(2024)]
absolute_magnitude             = 15
discovery                      = 2007-11-04
iau_designation                = P/2007 VA85
name                           = 333P/LINEAR (2024)
orbit_ArgOfPericenter          = 26.0004
orbit_AscendingNode            = 115.6549
orbit_Eccentricity             = 0.73651
orbit_Epoch                    = 2460300.5
orbit_Inclination              = 132.0097
orbit_PericenterDistance       = 1.112499
orbit_TimeAtPericenter         = 2460643.5047
orbit_good                     = 1000
ref                            = MPEC 2020-L06
slope_parameter                = 4
type                           = comet

[338pmcnaught(2024)]
absolute_magnitude             = 12
discoverer                     = R.H. McNaught
discovery                      = 2008-05-10
iau_designation                = P/2008 J3
name                           = 338P/McNaught (2024)
orbit_ArgOfPericenter          = 4.5672
orbit_AscendingNode            = 9.794
orbit_Eccentricity             = 0.412121
orbit_Epoch                    = 2460300.5
orbit_Inclination              = 25.3865
orbit_PericenterDistance       = 2.287914
orbit_TimeAtPericenter         = 2460525.4659
orbit_good                     = 1000
ref                            = MPEC 2023-J29
slope_parameter                = 4
type                           = comet

[339pgibbs(2023)]
absolute_magnitude             = 17
discoverer                     = A.R. Gibbs
discovery                      = 2009-05-16
iau_designation                = P/2009 K1
name                           = 339P/Gibbs (2023)
orbit_ArgOfPericenter          = 172.6994
orbit_AscendingNode            = 27.4783
orbit_Eccentricity             = 0.635677
orbit_Epoch                    = 2460300.5
orbit_Inclination              = 5.7331
orbit_PericenterDistance       = 1.348243
orbit_TimeAtPericenter         = 2460187.4388
orbit_good                     = 1000
ref                            = MPC101101
slope_parameter                = 4
type                           = comet

[33pdaniel(2024)]
absolute_magnitude             = 10
discoverer                     = Z. Daniel
discovery                      = 1909-12-07
discovery_code                 = 1909e
iau_designation                = P/1909 X1
name                           = 33P/Daniel (2024)
orbit_ArgOfPericenter          = 20.4105
orbit_AscendingNode            = 66.2882
orbit_Eccentricity             = 0.452085
orbit_Epoch                    = 2460300.5
orbit_Inclination              = 22.2942
orbit_PericenterDistance       = 2.241594
orbit_TimeAtPericenter         = 2460625.8679
orbit_good                     = 1000
perihelion_code                = 1909 IV
ref                            = MPEC 2023-J29
slope_parameter                = 12
type                           = comet

[345plinear(2024)]
absolute_magnitude             = 12
discovery                      = 2008-09-28
iau_designation                = P/2008 SH164
name                           = 345P/LINEAR (2024)
orbit_ArgOfPericenter          = 196.6407
orbit_AscendingNode            = 154.5959
orbit_Eccentricity             = 0.22132
orbit_Epoch                    = 2460300.5
orbit_Inclination              = 2.7279
orbit_PericenterDistance       = 3.139841
orbit_TimeAtPericenter         = 2460553.3265
orbit_good                     = 1000
ref                            = MPEC 2022-K19
slope_parameter                = 4
type                           = comet

[347ppanstarrs(2023)]
absolute_magnitude             = 15
discovery                      = 2016-09-21
iau_designation                = P/2016 SV
name                           = 347P/PANSTARRS (2023)
orbit_ArgOfPericenter          = 98.426
orbit_AscendingNode            = 260.9942
orbit_Eccentricity             = 0.386813
orbit_Epoch                    = 2460300.5
orbit_Inclination              = 11.757
orbit_PericenterDistance       = 2.212302
orbit_TimeAtPericenter         = 2460145.4912
orbit_good                     = 1000
ref                            = MPEC 2023-XP6
slope_parameter                = 4
type                           = comet

[349plemmon(2024)]
absolute_magnitude             = 14
discoverer                     = R.A. Kowalski
discovery                      = 2010-03-14
iau_designation                = P/2010 EY90
name                           = 349P/Lemmon (2024)
orbit_ArgOfPericenter          = 255.8043
orbit_AscendingNode            = 331.7549
orbit_Eccentricity             = 0.298502
orbit_Epoch                    = 2460300.5
orbit_Inclination              = 5.4886
orbit_PericenterDistance       = 2.510032
orbit_TimeAtPericenter         = 2460457.688
orbit_good                     = 1000
ref                            = MPEC 2022-K19
slope_parameter                = 4
type                           = comet

[354plinear(2023)]
absolute_magnitude             = 15.5
discovery                      = 2010-01-06
iau_designation                = P/2010 A2
name                           = 354P/LINEAR (2023)
orbit_ArgOfPericenter          = 320.03
orbit_AscendingNode            = 132.746
orbit_Eccentricity             = 0.124568
orbit_Epoch                    = 2460300.5
orbit_Inclination              = 5.253
orbit_PericenterDistance       = 2.004646
orbit_TimeAtPericenter         = 2460231.3939
orbit_good                     = 632
ref                            = MPC105545
slope_parameter                = 4
type                           = comet

[355plinearneat(2024)]
absolute_magnitude             = 15.5
discovery                      = 2004-10-05
iau_designation                = P/2004 T1
name                           = 355P/LINEAR-NEAT (2024)
orbit_ArgOfPericenter          = 336.339
orbit_AscendingNode            = 51.4343
orbit_Eccentricity             = 0.507948
orbit_Epoch                    = 2460300.5
orbit_Inclination              = 11.0472
orbit_PericenterDistance       = 1.706756
orbit_TimeAtPericenter         = 2460401.9226
orbit_good                     = 1000
ref                            = MPEC 2023-CD7
slope_parameter                = 2
type                           = comet

[3574392004bl86]
absolute_magnitude             = 19
albedo                         = 0.15
discoverer                     = LINEAR
discovery                      = 2004-01-30
iau_designation                = 2004 BL86
minor_planet_number            = 357439
orbit_ArgOfPericenter          = 311.5033
orbit_AscendingNode            = 126.6599
orbit_Eccentricity             = 0.4024244
orbit_Epoch                    = 2460000.5
orbit_Inclination              = 23.78188
orbit_MeanAnomaly              = 159.75803
orbit_MeanMotion               = 0.53525643
orbit_SemiMajorAxis            = 1.5023165
radius                         = 1
type                           = asteroid

